{"type":"FeatureCollection","features":[{"type":"Feature","properties":{},"geometry":{"type":"Polygon","coordinates":[[[-2.049215,48.636599],[-2.049112,48.636474],[-2.049091,48.636366],[-2.049241,48.636273],[-2.049254,48.636009],[-2.049184,48.635734],[-2.04904,48.635455],[-2.049002,48.635266],[-2.049086,48.635087],[-2.049473,48.63453],[-2.050156,48.634343],[-2.050116,48.634262],[-2.049362,48.634415],[-2.049008,48.63489],[-2.048868,48.635239],[-2.048922,48.635443],[-2.049032,48.635729],[-2.049138,48.63607],[-2.049137,48.636182],[-2.049058,48.636252],[-2.048695,48.636231],[-2.048525,48.636336],[-2.048587,48.636383],[-2.048611,48.636423],[-2.048657,48.636496],[-2.048723,48.63655],[-2.048875,48.636576],[-2.049034,48.636569],[-2.049119,48.636664],[-2.049215,48.636599]]]}},{"type":"Feature","properties":{},"geometry":{"type":"Polygon","coordinates":[[[-2.050832,48.633952],[-2.051233,48.633548],[-2.051269,48.633504],[-2.051137,48.633458],[-2.050709,48.633895],[-2.050832,48.633952]]]}},{"type":"Feature","properties":{},"geometry":{"type":"Polygon","coordinates":[[[-2.052458,48.631374],[-2.052419,48.631463],[-2.052685,48.6316],[-2.052967,48.631738],[-2.053478,48.632017],[-2.053778,48.632196],[-2.053773,48.632091],[-2.053669,48.632028],[-2.05321,48.631776],[-2.052763,48.631534],[-2.052458,48.631374],[-2.052458,48.631374]]]}},{"type":"Feature","properties":{},"geometry":{"type":"Polygon","coordinates":[[[-2.053866,48.632125],[-2.053898,48.631744],[-2.055093,48.631795],[-2.055104,48.631722],[-2.053911,48.631664],[-2.053974,48.631054],[-2.055204,48.631134],[-2.054935,48.632716],[-2.055069,48.632797],[-2.0553,48.631378],[-2.05664,48.631557],[-2.056694,48.631583],[-2.056775,48.631535],[-2.056681,48.631491],[-2.055314,48.631298],[-2.055344,48.631143],[-2.055389,48.630771],[-2.05551,48.630101],[-2.055627,48.630136],[-2.058236,48.630591],[-2.058273,48.630533],[-2.055661,48.630064],[-2.055516,48.630022],[-2.055618,48.629393],[-2.055859,48.627979],[-2.055859,48.627874],[-2.055719,48.627881],[-2.055718,48.627963],[-2.055376,48.630004],[-2.05526,48.629997],[-2.054168,48.629811],[-2.05406,48.629799],[-2.054048,48.62986],[-2.054168,48.629873],[-2.055232,48.630063],[-2.055366,48.630074],[-2.055216,48.63106],[-2.053978,48.630968],[-2.054051,48.629849],[-2.053961,48.629866],[-2.053818,48.631478],[-2.05377,48.63209],[-2.053866,48.632125]]]}},{"type":"Feature","properties":{},"geometry":{"type":"Polygon","coordinates":[[[-2.053235,48.630253],[-2.053098,48.630389],[-2.053029,48.630463],[-2.053161,48.630509],[-2.053172,48.630552],[-2.053377,48.630566],[-2.053423,48.630479],[-2.053356,48.63043],[-2.053444,48.630322],[-2.053235,48.630253]]]}},{"type":"Feature","properties":{},"geometry":{"type":"Polygon","coordinates":[[[-2.052702,48.630808],[-2.052938,48.630865],[-2.053003,48.630745],[-2.052804,48.630698],[-2.052702,48.630808]]]}},{"type":"Feature","properties":{},"geometry":{"type":"Polygon","coordinates":[[[-2.052976,48.630874],[-2.052941,48.630969],[-2.05315,48.631002],[-2.053185,48.630908],[-2.053271,48.630921],[-2.0533,48.630865],[-2.053254,48.630853],[-2.053149,48.630817],[-2.053078,48.630822],[-2.053013,48.630807],[-2.052976,48.630874]]]}},{"type":"Feature","properties":{},"geometry":{"type":"Polygon","coordinates":[[[-2.056695,48.632115],[-2.056702,48.632172],[-2.056618,48.632184],[-2.056645,48.632269],[-2.056746,48.632494],[-2.056807,48.632697],[-2.056832,48.632985],[-2.056931,48.632982],[-2.05691,48.632682],[-2.05685,48.632528],[-2.056724,48.632174],[-2.057065,48.632177],[-2.057076,48.632115],[-2.056695,48.632115]]]}},{"type":"Feature","properties":{},"geometry":{"type":"Polygon","coordinates":[[[-2.057735,48.631083],[-2.057644,48.631042],[-2.057457,48.631142],[-2.056536,48.630957],[-2.055384,48.63082],[-2.055375,48.630877],[-2.056511,48.631012],[-2.057378,48.631187],[-2.056982,48.631425],[-2.057038,48.631464],[-2.057548,48.631175],[-2.057735,48.631083]]]}},{"type":"Feature","properties":{},"geometry":{"type":"Polygon","coordinates":[[[-2.055305,48.633395],[-2.055597,48.633361],[-2.055573,48.633289],[-2.054954,48.633366],[-2.054936,48.633442],[-2.055305,48.633395]]]}},{"type":"Feature","properties":{},"geometry":{"type":"Polygon","coordinates":[[[-2.050835,48.634348],[-2.050687,48.634224],[-2.050598,48.63426],[-2.050723,48.634379],[-2.050835,48.634348]]]}},{"type":"Feature","properties":{},"geometry":{"type":"Polygon","coordinates":[[[-2.0584,48.635055],[-2.058172,48.634021],[-2.058162,48.633983],[-2.059272,48.634185],[-2.060611,48.634529],[-2.062126,48.63483],[-2.062241,48.634784],[-2.060646,48.634453],[-2.059505,48.634163],[-2.058175,48.633909],[-2.058362,48.63336],[-2.058248,48.633373],[-2.058073,48.633899],[-2.058069,48.634028],[-2.058291,48.635046],[-2.0584,48.635055]]]}},{"type":"Feature","properties":{},"geometry":{"type":"Polygon","coordinates":[[[-2.055822,48.635229],[-2.056504,48.635396],[-2.056871,48.635499],[-2.057807,48.635787],[-2.057849,48.635721],[-2.056936,48.635421],[-2.056688,48.635347],[-2.055851,48.635155],[-2.055822,48.635229]]]}}]}